[{"OBJECT_NAME":"COSMOS 2600","OBJECT_ID":"2026-023A","EPOCH":"2026-03-05T19:04:51.226176","MEAN_MOTION":15.83390719,"ECCENTRICITY":0.0002149,"INCLINATION":96.6428,"RA_OF_ASC_NODE":140.5618,"ARG_OF_PERICENTER":352.0041,"MEAN_ANOMALY":8.1195,"EPHEMERIS_TYPE":0,"CLASSIFICATION_TYPE":"U","NORAD_CAT_ID":67674,"ELEMENT_SET_NO":999,"REV_AT_EPOCH":443,"BSTAR":0.00037731,"MEAN_MOTION_DOT":0.00082036,"MEAN_MOTION_DDOT":0},{"OBJECT_NAME":"2026-023B","OBJECT_ID":"2026-023B","EPOCH":"2026-03-05T18:40:13.577952","MEAN_MOTION":15.22884832,"ECCENTRICITY":0.0019359,"INCLINATION":96.6362,"RA_OF_ASC_NODE":138.1787,"ARG_OF_PERICENTER":145.2597,"MEAN_ANOMALY":214.991,"EPHEMERIS_TYPE":0,"CLASSIFICATION_TYPE":"U","NORAD_CAT_ID":67675,"ELEMENT_SET_NO":999,"REV_AT_EPOCH":426,"BSTAR":0.00055302,"MEAN_MOTION_DOT":0.00012978,"MEAN_MOTION_DDOT":0},{"OBJECT_NAME":"2026-023C","OBJECT_ID":"2026-023C","EPOCH":"2026-03-05T10:45:07.274304","MEAN_MOTION":15.22987192,"ECCENTRICITY":0.002039,"INCLINATION":96.6398,"RA_OF_ASC_NODE":137.9108,"ARG_OF_PERICENTER":136.8025,"MEAN_ANOMALY":223.4817,"EPHEMERIS_TYPE":0,"CLASSIFICATION_TYPE":"U","NORAD_CAT_ID":67676,"ELEMENT_SET_NO":999,"REV_AT_EPOCH":437,"BSTAR":0.00066102,"MEAN_MOTION_DOT":0.00015585,"MEAN_MOTION_DDOT":0},{"OBJECT_NAME":"2026-023D","OBJECT_ID":"2026-023D","EPOCH":"2026-03-05T17:07:22.297728","MEAN_MOTION":15.2280572,"ECCENTRICITY":0.0020585,"INCLINATION":96.6428,"RA_OF_ASC_NODE":138.1323,"ARG_OF_PERICENTER":140.7052,"MEAN_ANOMALY":219.5685,"EPHEMERIS_TYPE":0,"CLASSIFICATION_TYPE":"U","NORAD_CAT_ID":67677,"ELEMENT_SET_NO":999,"REV_AT_EPOCH":424,"BSTAR":0.0005466,"MEAN_MOTION_DOT":0.00012805,"MEAN_MOTION_DDOT":0},{"OBJECT_NAME":"2026-023E","OBJECT_ID":"2026-023E","EPOCH":"2026-03-05T20:13:27.117408","MEAN_MOTION":15.22984913,"ECCENTRICITY":0.0020342,"INCLINATION":96.632,"RA_OF_ASC_NODE":138.2277,"ARG_OF_PERICENTER":139.7749,"MEAN_ANOMALY":220.5,"EPHEMERIS_TYPE":0,"CLASSIFICATION_TYPE":"U","NORAD_CAT_ID":67678,"ELEMENT_SET_NO":999,"REV_AT_EPOCH":426,"BSTAR":0.00062626,"MEAN_MOTION_DOT":0.00014759,"MEAN_MOTION_DDOT":0},{"OBJECT_NAME":"2026-023F","OBJECT_ID":"2026-023F","EPOCH":"2026-03-05T20:09:39.275424","MEAN_MOTION":15.23139449,"ECCENTRICITY":0.0022135,"INCLINATION":96.6325,"RA_OF_ASC_NODE":140.7281,"ARG_OF_PERICENTER":134.5723,"MEAN_ANOMALY":225.7327,"EPHEMERIS_TYPE":0,"CLASSIFICATION_TYPE":"U","NORAD_CAT_ID":67679,"ELEMENT_SET_NO":999,"REV_AT_EPOCH":425,"BSTAR":0.00062395,"MEAN_MOTION_DOT":0.00014788,"MEAN_MOTION_DDOT":0},{"OBJECT_NAME":"2026-023G","OBJECT_ID":"2026-023G","EPOCH":"2026-03-05T20:10:42.999744","MEAN_MOTION":15.23097821,"ECCENTRICITY":0.0023668,"INCLINATION":96.6255,"RA_OF_ASC_NODE":140.7092,"ARG_OF_PERICENTER":131.2883,"MEAN_ANOMALY":229.0399,"EPHEMERIS_TYPE":0,"CLASSIFICATION_TYPE":"U","NORAD_CAT_ID":67680,"ELEMENT_SET_NO":999,"REV_AT_EPOCH":425,"BSTAR":0.00065596,"MEAN_MOTION_DOT":0.00015547,"MEAN_MOTION_DDOT":0},{"OBJECT_NAME":"2026-023H","OBJECT_ID":"2026-023H","EPOCH":"2026-03-05T20:10:58.225152","MEAN_MOTION":15.23023637,"ECCENTRICITY":0.0023767,"INCLINATION":96.6402,"RA_OF_ASC_NODE":140.7425,"ARG_OF_PERICENTER":130.6569,"MEAN_ANOMALY":229.6741,"EPHEMERIS_TYPE":0,"CLASSIFICATION_TYPE":"U","NORAD_CAT_ID":67681,"ELEMENT_SET_NO":999,"REV_AT_EPOCH":425,"BSTAR":0.00058037,"MEAN_MOTION_DOT":0.00013716,"MEAN_MOTION_DDOT":0},{"OBJECT_NAME":"2026-023J","OBJECT_ID":"2026-023J","EPOCH":"2026-03-05T20:09:11.205792","MEAN_MOTION":15.23129096,"ECCENTRICITY":0.0023859,"INCLINATION":96.6355,"RA_OF_ASC_NODE":140.7462,"ARG_OF_PERICENTER":127.5039,"MEAN_ANOMALY":232.8373,"EPHEMERIS_TYPE":0,"CLASSIFICATION_TYPE":"U","NORAD_CAT_ID":67682,"ELEMENT_SET_NO":999,"REV_AT_EPOCH":425,"BSTAR":0.0006152,"MEAN_MOTION_DOT":0.00014591,"MEAN_MOTION_DDOT":0},{"OBJECT_NAME":"ISS OBJECT XZ","OBJECT_ID":"1998-067XZ","EPOCH":"2026-03-04T07:37:01.846272","MEAN_MOTION":15.5133766,"ECCENTRICITY":0.00094914,"INCLINATION":51.6304,"RA_OF_ASC_NODE":98.5346,"ARG_OF_PERICENTER":167.7937,"MEAN_ANOMALY":192.3284,"EPHEMERIS_TYPE":0,"CLASSIFICATION_TYPE":"U","NORAD_CAT_ID":67683,"ELEMENT_SET_NO":999,"REV_AT_EPOCH":395,"BSTAR":0.00087420501,"MEAN_MOTION_DOT":0.00052289,"MEAN_MOTION_DDOT":0},{"OBJECT_NAME":"GXIBA-1","OBJECT_ID":"1998-067YA","EPOCH":"2026-03-05T10:56:24.455040","MEAN_MOTION":15.53561731,"ECCENTRICITY":0.001097,"INCLINATION":51.6299,"RA_OF_ASC_NODE":92.6362,"ARG_OF_PERICENTER":161.6042,"MEAN_ANOMALY":198.5347,"EPHEMERIS_TYPE":0,"CLASSIFICATION_TYPE":"U","NORAD_CAT_ID":67684,"ELEMENT_SET_NO":999,"REV_AT_EPOCH":413,"BSTAR":0.0012309,"MEAN_MOTION_DOT":0.00080338,"MEAN_MOTION_DDOT":0},{"OBJECT_NAME":"CORAL","OBJECT_ID":"1998-067YB","EPOCH":"2026-03-05T08:16:08.338944","MEAN_MOTION":15.51741434,"ECCENTRICITY":0.0011326,"INCLINATION":51.6309,"RA_OF_ASC_NODE":93.3938,"ARG_OF_PERICENTER":167.4976,"MEAN_ANOMALY":192.6297,"EPHEMERIS_TYPE":0,"CLASSIFICATION_TYPE":"U","NORAD_CAT_ID":67685,"ELEMENT_SET_NO":999,"REV_AT_EPOCH":411,"BSTAR":0.00077286,"MEAN_MOTION_DOT":0.00046853,"MEAN_MOTION_DDOT":0},{"OBJECT_NAME":"ISS OBJECT YC","OBJECT_ID":"1998-067YC","EPOCH":"2026-03-05T01:59:19.055616","MEAN_MOTION":15.52157473,"ECCENTRICITY":0.00077438,"INCLINATION":51.6311,"RA_OF_ASC_NODE":94.6478,"ARG_OF_PERICENTER":134.4449,"MEAN_ANOMALY":225.7176,"EPHEMERIS_TYPE":0,"CLASSIFICATION_TYPE":"U","NORAD_CAT_ID":67686,"ELEMENT_SET_NO":999,"REV_AT_EPOCH":407,"BSTAR":0.00090337252,"MEAN_MOTION_DOT":0.00055661,"MEAN_MOTION_DDOT":0},{"OBJECT_NAME":"LEOPARD","OBJECT_ID":"1998-067YD","EPOCH":"2026-03-05T11:23:58.081056","MEAN_MOTION":15.51598294,"ECCENTRICITY":0.0007783,"INCLINATION":51.6307,"RA_OF_ASC_NODE":92.7649,"ARG_OF_PERICENTER":140.1506,"MEAN_ANOMALY":220.0056,"EPHEMERIS_TYPE":0,"CLASSIFICATION_TYPE":"U","NORAD_CAT_ID":67687,"ELEMENT_SET_NO":999,"REV_AT_EPOCH":405,"BSTAR":0.00077252,"MEAN_MOTION_DOT":0.00046527,"MEAN_MOTION_DDOT":0},{"OBJECT_NAME":"ISS OBJECT YE","OBJECT_ID":"1998-067YE","EPOCH":"2026-03-04T12:07:23.752992","MEAN_MOTION":15.51890022,"ECCENTRICITY":0.00077863,"INCLINATION":51.6315,"RA_OF_ASC_NODE":97.5383,"ARG_OF_PERICENTER":134.731,"MEAN_ANOMALY":225.4314,"EPHEMERIS_TYPE":0,"CLASSIFICATION_TYPE":"U","NORAD_CAT_ID":67688,"ELEMENT_SET_NO":999,"REV_AT_EPOCH":390,"BSTAR":0.0010599088,"MEAN_MOTION_DOT":0.00064836,"MEAN_MOTION_DDOT":0},{"OBJECT_NAME":"PRC TEST SPACECRAFT 4","OBJECT_ID":"2026-024A","EPOCH":"2026-03-05T19:24:46.328256","MEAN_MOTION":14.91684746,"ECCENTRICITY":0.0006105,"INCLINATION":49.9861,"RA_OF_ASC_NODE":40.9888,"ARG_OF_PERICENTER":345.2544,"MEAN_ANOMALY":14.8219,"EPHEMERIS_TYPE":0,"CLASSIFICATION_TYPE":"U","NORAD_CAT_ID":67689,"ELEMENT_SET_NO":999,"REV_AT_EPOCH":400,"BSTAR":4.869e-5,"MEAN_MOTION_DOT":2.51e-6,"MEAN_MOTION_DDOT":0},{"OBJECT_NAME":"CZ-2F R/B","OBJECT_ID":"2026-024B","EPOCH":"2026-03-05T19:05:03.765408","MEAN_MOTION":15.34151108,"ECCENTRICITY":0.017489,"INCLINATION":49.9878,"RA_OF_ASC_NODE":34.1288,"ARG_OF_PERICENTER":258.7175,"MEAN_ANOMALY":99.4087,"EPHEMERIS_TYPE":0,"CLASSIFICATION_TYPE":"U","NORAD_CAT_ID":67690,"ELEMENT_SET_NO":999,"REV_AT_EPOCH":409,"BSTAR":0.00040743,"MEAN_MOTION_DOT":0.00022277,"MEAN_MOTION_DDOT":0}]
